{
    "links": {
        "self": "http://www.neowsapp.com/rest/v1/neo/3843625?api_key=iIulBulltgU6a56xZRHN4H3l9WmuAYTsLGpBGhQ2"
    },
    "id": "3843625",
    "neo_reference_id": "3843625",
    "name": "(2019 QD3)",
    "designation": "2019 QD3",
    "nasa_jpl_url": "http://ssd.jpl.nasa.gov/sbdb.cgi?sstr=3843625",
    "absolute_magnitude_h": 22.5,
    "estimated_diameter": {
        "kilometers": {
            "estimated_diameter_min": 0.0840533402,
            "estimated_diameter_max": 0.1879489824
        },
        "meters": {
            "estimated_diameter_min": 84.0533402073,
            "estimated_diameter_max": 187.9489824394
        },
        "miles": {
            "estimated_diameter_min": 0.0522283081,
            "estimated_diameter_max": 0.1167860472
        },
        "feet": {
            "estimated_diameter_min": 275.7655606856,
            "estimated_diameter_max": 616.6305395464
        }
    },
    "is_potentially_hazardous_asteroid": false,
    "close_approach_data": [
        {
            "close_approach_date": "1971-09-02",
            "close_approach_date_full": "1971-Sep-02 14:51",
            "epoch_date_close_approach": 52671060000,
            "relative_velocity": {
                "kilometers_per_second": "7.6517519562",
                "kilometers_per_hour": "27546.3070421425",
                "miles_per_hour": "17116.2039507135"
            },
            "miss_distance": {
                "astronomical": "0.2910367207",
                "lunar": "113.2132843523",
                "kilometers": "43538473.508504909",
                "miles": "27053552.9482653842"
            },
            "orbiting_body": "Earth"
        },
        {
            "close_approach_date": "1995-09-04",
            "close_approach_date_full": "1995-Sep-04 06:14",
            "epoch_date_close_approach": 810195240000,
            "relative_velocity": {
                "kilometers_per_second": "6.840784889",
                "kilometers_per_hour": "24626.8256005096",
                "miles_per_hour": "15302.1517182722"
            },
            "miss_distance": {
                "astronomical": "0.2308919358",
                "lunar": "89.8169630262",
                "kilometers": "34540941.795856746",
                "miles": "21462745.9911892548"
            },
            "orbiting_body": "Earth"
        },
        {
            "close_approach_date": "2019-09-05",
            "close_approach_date_full": "2019-Sep-05 12:53",
            "epoch_date_close_approach": 1567687980000,
            "relative_velocity": {
                "kilometers_per_second": "6.5279172234",
                "kilometers_per_hour": "23500.5020042078",
                "miles_per_hour": "14602.2980370035"
            },
            "miss_distance": {
                "astronomical": "0.2041094838",
                "lunar": "79.3985891982",
                "kilometers": "30534344.023279506",
                "miles": "18973161.5788729428"
            },
            "orbiting_body": "Earth"
        },
        {
            "close_approach_date": "2043-09-06",
            "close_approach_date_full": "2043-Sep-06 14:21",
            "epoch_date_close_approach": 2325162060000,
            "relative_velocity": {
                "kilometers_per_second": "6.3765531939",
                "kilometers_per_hour": "22955.591498008",
                "miles_per_hour": "14263.711839415"
            },
            "miss_distance": {
                "astronomical": "0.1892034366",
                "lunar": "73.6001368374",
                "kilometers": "28304431.112040042",
                "miles": "17587557.9471228996"
            },
            "orbiting_body": "Earth"
        },
        {
            "close_approach_date": "2067-09-07",
            "close_approach_date_full": "2067-Sep-07 07:57",
            "epoch_date_close_approach": 3082607820000,
            "relative_velocity": {
                "kilometers_per_second": "6.3305689967",
                "kilometers_per_hour": "22790.0483879872",
                "miles_per_hour": "14160.8497886357"
            },
            "miss_distance": {
                "astronomical": "0.1814141984",
                "lunar": "70.5701231776",
                "kilometers": "27139177.668397408",
                "miles": "16863503.0321159104"
            },
            "orbiting_body": "Earth"
        }
    ],
    "orbital_data": {
        "orbit_id": "6",
        "orbit_determination_date": "2019-10-03 06:13:40",
        "first_observation_date": "2019-08-24",
        "last_observation_date": "2019-10-02",
        "data_arc_in_days": 39,
        "observations_used": 43,
        "orbit_uncertainty": "6",
        "minimum_orbit_intersection": ".17193",
        "jupiter_tisserand_invariant": "3.432",
        "epoch_osculation": "2459000.5",
        "eccentricity": ".4824493409098547",
        "semi_major_axis": "2.273456693292381",
        "inclination": "9.140284608843327",
        "ascending_node_longitude": "173.8707400791365",
        "orbital_period": "1252.06955531532",
        "perihelion_distance": "1.176629010026374",
        "perihelion_argument": "169.2612906444736",
        "aphelion_distance": "3.370284376558387",
        "perihelion_time": "2458726.620132348140",
        "mean_anomaly": "78.74702482470246",
        "mean_motion": ".2875239626039289",
        "equinox": "J2000",
        "orbit_class": {
            "orbit_class_type": "AMO",
            "orbit_class_description": "Near-Earth asteroid orbits similar to that of 1221 Amor",
            "orbit_class_range": "1.017 AU < q (perihelion) < 1.3 AU"
        }
    },
    "is_sentry_object": false
}